QZS-1R                  
1 49336U 21096A   24006.61465803 -.00000257  00000+0  00000+0 0  9991
2 49336  35.6105  93.0166 0757468 271.5661  94.7652  1.00249866  8060
